{
  "type": "FeatureCollection",
  "features": [
    {
      "type": "Feature",
      "properties": {
        "norad_id": 66489,
        "name": "STARLINK-35696",
        "group": "last-30-days",
        "lat": -33.35558519200001,
        "lon": 81.69927642631717,
        "alt_km": 416.97505646966056,
        "timestamp": "2025-12-12T11:38:30.168951+00:00",
        "meta_object_name": "STARLINK-35696",
        "meta_object_id": "2025-263E",
        "meta_epoch": "2025-12-12T00:00:04.999104",
        "meta_mean_motion": 15.50507446,
        "meta_eccentricity": 0.0001762,
        "meta_inclination": 43.0003,
        "meta_ra_of_asc_node": 129.4797,
        "meta_arg_of_pericenter": 268.2838,
        "meta_mean_anomaly": 207.4369,
        "meta_ephemeris_type": 0,
        "meta_classification_type": "U",
        "meta_norad_cat_id": 66489,
        "meta_element_set_no": 999,
        "meta_rev_at_epoch": 551,
        "meta_bstar": 0.0011909,
        "meta_mean_motion_dot": 0.00069973,
        "meta_mean_motion_ddot": 0,
        "tle_line1": "1 66489U 25263E   25346.00005786  .00069973  00000+0  11909-2 0  9992",
        "tle_line2": "2 66489  43.0003 129.4797 0001762 268.2838 207.4369 15.50507446  5516"
      },
      "geometry": {
        "type": "Point",
        "coordinates": [
          81.69927642631717,
          -33.35558519200001
        ]
      }
    },
    {
      "type": "Feature",
      "properties": {
        "norad_id": 66490,
        "name": "STARLINK-35693",
        "group": "last-30-days",
        "lat": -42.051840649810394,
        "lon": 22.21967330218125,
        "alt_km": 446.31989499160954,
        "timestamp": "2025-12-12T11:38:30.168962+00:00",
        "meta_object_name": "STARLINK-35693",
        "meta_object_id": "2025-263F",
        "meta_epoch": "2025-12-12T04:00:01.998720",
        "meta_mean_motion": 15.40644721,
        "meta_eccentricity": 0.0001893,
        "meta_inclination": 43.0007,
        "meta_ra_of_asc_node": 128.5916,
        "meta_arg_of_pericenter": 285.1089,
        "meta_mean_anomaly": 6.1814,
        "meta_ephemeris_type": 0,
        "meta_classification_type": "U",
        "meta_norad_cat_id": 66490,
        "meta_element_set_no": 999,
        "meta_rev_at_epoch": 554,
        "meta_bstar": 0.0010673,
        "meta_mean_motion_dot": 0.00044457,
        "meta_mean_motion_ddot": 0,
        "tle_line1": "1 66490U 25263F   25346.16668980  .00044457  00000+0  10673-2 0  9999",
        "tle_line2": "2 66490  43.0007 128.5916 0001893 285.1089   6.1814 15.40644721  5545"
      },
      "geometry": {
        "type": "Point",
        "coordinates": [
          22.21967330218125,
          -42.051840649810394
        ]
      }
    },
    {
      "type": "Feature",
      "properties": {
        "norad_id": 66491,
        "name": "STARLINK-35663",
        "group": "last-30-days",
        "lat": -30.508628453313435,
        "lon": 87.40494404359735,
        "alt_km": 416.5534471710598,
        "timestamp": "2025-12-12T11:38:30.168972+00:00",
        "meta_object_name": "STARLINK-35663",
        "meta_object_id": "2025-263G",
        "meta_epoch": "2025-12-12T00:00:04.999104",
        "meta_mean_motion": 15.50532857,
        "meta_eccentricity": 0.0001751,
        "meta_inclination": 43.0002,
        "meta_ra_of_asc_node": 129.4654,
        "meta_arg_of_pericenter": 320.8425,
        "meta_mean_anomaly": 160.4832,
        "meta_ephemeris_type": 0,
        "meta_classification_type": "U",
        "meta_norad_cat_id": 66491,
        "meta_element_set_no": 999,
        "meta_rev_at_epoch": 551,
        "meta_bstar": 0.0011704,
        "meta_mean_motion_dot": 0.00068814,
        "meta_mean_motion_ddot": 0,
        "tle_line1": "1 66491U 25263G   25346.00005786  .00068814  00000+0  11704-2 0  9991",
        "tle_line2": "2 66491  43.0002 129.4654 0001751 320.8425 160.4832 15.50532857  5512"
      },
      "geometry": {
        "type": "Point",
        "coordinates": [
          87.40494404359735,
          -30.508628453313435
        ]
      }
    },
    {
      "type": "Feature",
      "properties": {
        "norad_id": 66492,
        "name": "STARLINK-35673",
        "group": "last-30-days",
        "lat": -33.66306376904195,
        "lon": -7.567417164504134,
        "alt_km": 446.2135598849991,
        "timestamp": "2025-12-12T11:38:30.168983+00:00",
        "meta_object_name": "STARLINK-35673",
        "meta_object_id": "2025-263H",
        "meta_epoch": "2025-12-12T04:00:01.998720",
        "meta_mean_motion": 15.40660011,
        "meta_eccentricity": 0.0001552,
        "meta_inclination": 43.0005,
        "meta_ra_of_asc_node": 128.6509,
        "meta_arg_of_pericenter": 272.021,
        "meta_mean_anomaly": 354.3599,
        "meta_ephemeris_type": 0,
        "meta_classification_type": "U",
        "meta_norad_cat_id": 66492,
        "meta_element_set_no": 999,
        "meta_rev_at_epoch": 554,
        "meta_bstar": 0.00080259,
        "meta_mean_motion_dot": 0.00033325,
        "meta_mean_motion_ddot": 0,
        "tle_line1": "1 66492U 25263H   25346.16668980  .00033325  00000+0  80259-3 0  9991",
        "tle_line2": "2 66492  43.0005 128.6509 0001552 272.0210 354.3599 15.40660011  5545"
      },
      "geometry": {
        "type": "Point",
        "coordinates": [
          -7.567417164504134,
          -33.66306376904195
        ]
      }
    },
    {
      "type": "Feature",
      "properties": {
        "norad_id": 66493,
        "name": "STARLINK-35597",
        "group": "last-30-days",
        "lat": -28.366305243261976,
        "lon": 91.20767156561875,
        "alt_km": 416.69442510053887,
        "timestamp": "2025-12-12T11:38:30.168993+00:00",
        "meta_object_name": "STARLINK-35597",
        "meta_object_id": "2025-263J",
        "meta_epoch": "2025-12-12T00:00:04.999104",
        "meta_mean_motion": 15.50514915,
        "meta_eccentricity": 0.0001737,
        "meta_inclination": 43.0003,
        "meta_ra_of_asc_node": 129.455,
        "meta_arg_of_pericenter": 274.9887,
        "meta_mean_anomaly": 210.3079,
        "meta_ephemeris_type": 0,
        "meta_classification_type": "U",
        "meta_norad_cat_id": 66493,
        "meta_element_set_no": 999,
        "meta_rev_at_epoch": 551,
        "meta_bstar": 0.0011712,
        "meta_mean_motion_dot": 0.00068817,
        "meta_mean_motion_ddot": 0,
        "tle_line1": "1 66493U 25263J   25346.00005786  .00068817  00000+0  11712-2 0  9995",
        "tle_line2": "2 66493  43.0003 129.4550 0001737 274.9887 210.3079 15.50514915  5518"
      },
      "geometry": {
        "type": "Point",
        "coordinates": [
          91.20767156561875,
          -28.366305243261976
        ]
      }
    },
    {
      "type": "Feature",
      "properties": {
        "norad_id": 66494,
        "name": "STARLINK-35689",
        "group": "last-30-days",
        "lat": -32.17808384105368,
        "lon": 84.16593722185512,
        "alt_km": 422.5239557025143,
        "timestamp": "2025-12-12T11:38:30.169006+00:00",
        "meta_object_name": "STARLINK-35689",
        "meta_object_id": "2025-263K",
        "meta_epoch": "2025-12-12T00:00:04.999104",
        "meta_mean_motion": 15.50772647,
        "meta_eccentricity": 9.16e-05,
        "meta_inclination": 43.0002,
        "meta_ra_of_asc_node": 129.4704,
        "meta_arg_of_pericenter": 269.0531,
        "meta_mean_anomaly": 210.4733,
        "meta_ephemeris_type": 0,
        "meta_classification_type": "U",
        "meta_norad_cat_id": 66494,
        "meta_element_set_no": 999,
        "meta_rev_at_epoch": 551,
        "meta_bstar": -0.037144,
        "meta_mean_motion_dot": -0.01964096,
        "meta_mean_motion_ddot": 0,
        "tle_line1": "1 66494U 25263K   25346.00005786 -.01964096  00000+0 -37144-1 0  9999",
        "tle_line2": "2 66494  43.0002 129.4704 0000916 269.0531 210.4733 15.50772647  5514"
      },
      "geometry": {
        "type": "Point",
        "coordinates": [
          84.16593722185512,
          -32.17808384105368
        ]
      }
    },
    {
      "type": "Feature",
      "properties": {
        "norad_id": 66495,
        "name": "STARLINK-35832",
        "group": "last-30-days",
        "lat": -27.283746825031177,
        "lon": 93.00544433591455,
        "alt_km": 416.5621286966989,
        "timestamp": "2025-12-12T11:38:30.169016+00:00",
        "meta_object_name": "STARLINK-35832",
        "meta_object_id": "2025-263L",
        "meta_epoch": "2025-12-12T00:00:04.999104",
        "meta_mean_motion": 15.50528078,
        "meta_eccentricity": 0.0001618,
        "meta_inclination": 43.0001,
        "meta_ra_of_asc_node": 129.4504,
        "meta_arg_of_pericenter": 288.52,
        "meta_mean_anomaly": 198.6964,
        "meta_ephemeris_type": 0,
        "meta_classification_type": "U",
        "meta_norad_cat_id": 66495,
        "meta_element_set_no": 999,
        "meta_rev_at_epoch": 551,
        "meta_bstar": 0.00096669,
        "meta_mean_motion_dot": 0.00056678,
        "meta_mean_motion_ddot": 0,
        "tle_line1": "1 66495U 25263L   25346.00005786  .00056678  00000+0  96669-3 0  9994",
        "tle_line2": "2 66495  43.0001 129.4504 0001618 288.5200 198.6964 15.50528078  5511"
      },
      "geometry": {
        "type": "Point",
        "coordinates": [
          93.00544433591455,
          -27.283746825031177
        ]
      }
    }
  ]
}